DMSP 5D-3 F16 (USA 172) 
1 28054U 03048A   26164.29849537  .00000016  00000+0  31776-4 0  9994
2 28054  98.9891 188.1011 0007569 150.2873  35.0212 14.14482811168932
METEOSAT-9 (MSG-2)      
1 28912U 05049B   26163.77290047  .00000130  00000+0  00000+0 0  9996
2 28912   9.3512  54.2102 0001546 347.3160 183.4652  1.00270154  6957
DMSP 5D-3 F17 (USA 191) 
1 29522U 06050A   26164.28057389  .00000040  00000+0  43024-4 0  9992
2 29522  98.7378 170.9306 0011259  69.4795 290.7586 14.14992566 11879
FENGYUN 3A              
1 32958U 08026A   26164.10024835  .00000048  00000+0  43399-4 0  9998
2 32958  98.6884 105.0099 0009427 134.3639 225.8311 14.19570335934823
GOES 14                 
1 35491U 09033A   26164.29140314 -.00000265  00000+0  00000+0 0  9992
2 35491   1.6796  83.0867 0001732   9.8620  57.6388  1.00112049  6554
DMSP 5D-3 F18 (USA 210) 
1 35951U 09057A   26164.25169311  .00000236  00000+0  14509-3 0  9993
2 35951  98.9036 145.0294 0009846 262.0226  97.9830 14.14894783859032
EWS-G2 (GOES 15)        
1 36411U 10008A   26164.06156043  .00000030  00000+0  00000+0 0  9999
2 36411   1.2659  82.9245 0005372  41.3683 222.9179  1.00275603 59596
COMS 1                  
1 36744U 10032A   26163.85305780 -.00000019  00000+0  00000+0 0  9993
2 36744   4.7933  75.4037 0011475  11.6145 212.0087  0.99163083 51043
FENGYUN 3B              
1 37214U 10059A   26164.28705491  .00000322  00000+0  18963-3 0  9993
2 37214  98.9626 210.2850 0021696 195.2851 298.3334 14.14841023806871
SUOMI NPP               
1 37849U 11061A   26164.25235061  .00000045  00000+0  42341-4 0  9999
2 37849  98.7954 105.1553 0001749  15.9779 344.1451 14.19516624757880
METEOSAT-10 (MSG-3)     
1 38552U 12035B   26164.04899370  .00000005  00000+0  00000+0 0  9996
2 38552   4.6614  61.0366 0001432 329.1787 249.0801  1.00276114 50815
METOP-B                 
1 38771U 12049A   26164.24770968  .00000092  00000+0  61835-4 0  9991
2 38771  98.6505 215.8253 0002470  29.2059 330.9256 14.21431683712705
INSAT-3D                
1 39216U 13038B   26164.28854314 -.00000328  00000+0  00000+0 0  9992
2 39216   1.9156  82.5871 0000569 309.4246 102.9952  1.00270992 47047
FENGYUN 3C              
1 39260U 13052A   26164.22744491  .00000073  00000+0  57953-4 0  9995
2 39260  98.4985 138.2841 0015440  38.5497 321.6778 14.15754291658004
METEOR-M 2              
1 40069U 14037A   26164.27414981  .00000505  00000+0  25025-3 0  9995
2 40069  98.5105 140.1509 0006907  53.7253 306.4562 14.21461771618764
HIMAWARI-8              
1 40267U 14060A   26164.26748549 -.00000263  00000+0  00000+0 0  9994
2 40267   0.0148 350.7865 0000969  92.8767  54.8709  1.00272785 42721
FENGYUN 2G              
1 40367U 14090A   26163.71230795 -.00000292  00000+0  00000+0 0  9998
2 40367   5.6261  72.8714 0003855 153.3439  30.9139  1.00274464 41952
METEOSAT-11 (MSG-4)     
1 40732U 15034A   26164.26473177  .00000075  00000+0  00000+0 0  9995
2 40732   3.1920  71.1333 0001752   8.9962 286.3079  1.00279128  7170
ELEKTRO-L 2             
1 41105U 15074A   26163.97488203 -.00000109  00000+0  00000+0 0  9996
2 41105   6.6819  70.5757 0000736 255.3930 271.7863  1.00270779 38465
SENTINEL-3A             
1 41335U 16011A   26164.28928810  .00000091  00000+0  55469-4 0  9994
2 41335  98.6249 231.7288 0001378 103.1220 257.0114 14.26738944537503
INSAT-3DR               
1 41752U 16054A   26164.06364044 -.00000064  00000+0  00000+0 0  9990
2 41752   0.0953  86.9367 0010602 187.0242  84.3135  1.00270830 35777
HIMAWARI-9              
1 41836U 16064A   26164.26783417 -.00000262  00000+0  00000+0 0  9995
2 41836   0.0513 137.6651 0000813 359.9689   1.1480  1.00270416 35174
GOES 16                 
1 41866U 16071A   26164.21066404 -.00000078  00000+0  00000+0 0  9996
2 41866   0.3305  85.5460 0000229 292.4493 214.6862  1.00270074 35066
FENGYUN 4A              
1 41882U 16077A   26164.28732979 -.00000346  00000+0  00000+0 0  9992
2 41882   2.3115  80.3373 0008627 152.5908 255.8996  1.00270763 34898
CYGFM05                 
1 41884U 16078A   26163.69004440  .00025269  00000+0  34459-3 0  9993
2 41884  34.9573 290.3647 0006738 104.6532 255.4940 15.56480274528055
CYGFM04                 
1 41885U 16078B   26163.67456927  .00031897  00000+0  36212-3 0  9996
2 41885  34.9327 258.3845 0006156 151.8927 208.2131 15.61273440528298
CYGFM02                 
1 41886U 16078C   26163.68384517  .00037250  00000+0  37622-3 0  9998
2 41886  34.9408 252.9892 0007137 153.2769 206.8326 15.64224055528461
CYGFM01                 
1 41887U 16078D   26164.06537561  .00026444  00000+0  35138-3 0  9994
2 41887  34.9405 288.9707 0006512 102.3793 257.7660 15.57169238528066
CYGFM08                 
1 41888U 16078E   26163.71189164  .00030083  00000+0  36147-3 0  9993
2 41888  34.9435 271.0104 0007827 133.0428 227.0953 15.59794894528272
CYGFM07                 
1 41890U 16078G   26163.67131248  .00029405  00000+0  35219-3 0  9996
2 41890  34.9450 259.6267 0006520 150.8935 209.2154 15.59894007528297
CYGFM03                 
1 41891U 16078H   26163.96228374  .00028713  00000+0  34387-3 0  9992
2 41891  34.9405 259.6284 0005984 141.0150 219.1007 15.59903117528314
